OBJECT_NAME,OBJECT_ID,EPOCH,MEAN_MOTION,ECCENTRICITY,INCLINATION,RA_OF_ASC_NODE,ARG_OF_PERICENTER,MEAN_ANOMALY,EPHEMERIS_TYPE,CLASSIFICATION_TYPE,NORAD_CAT_ID,ELEMENT_SET_NO,REV_AT_EPOCH,BSTAR,MEAN_MOTION_DOT,MEAN_MOTION_DDOT
ONEWEB-0666,2023-029AG,2025-03-10T20:33:32.443200,13.20770671,.0001447,87.9333,6.6874,80.0764,280.0533,0,U,55826,999,9999,-.20597E-3,-.71E-6,0
ONEWEB-0667,2023-029AH,2025-03-10T20:24:27.008640,13.20771373,.0002076,87.9333,6.6211,83.9708,276.1662,0,U,55827,999,9998,.4486E-4,.31E-6,0
ONEWEB-0669,2023-029AJ,2025-03-10T20:17:38.043744,13.20772234,.0001364,87.9331,6.6580,100.2040,259.9247,0,U,55828,999,9998,.15735E-4,.19E-6,0
ONEWEB-0670,2023-029AK,2025-03-10T21:12:00.723744,13.14501746,.0002184,87.9073,21.8592,91.6836,268.4544,0,U,55829,999,9856,-.4635E-3,-.159E-5,0
ONEWEB-0671,2023-029AL,2025-03-10T21:34:09.840864,13.19725323,.0002151,87.9204,37.0604,89.1189,271.0190,0,U,55830,999,9779,.22104E-4,.22E-6,0
ONEWEB-0672,2023-029AM,2025-03-10T20:10:48.677952,13.20771353,.0001533,87.9333,6.6443,76.6681,283.4623,0,U,55831,999,9998,.11285E-3,.59E-6,0
ONEWEB-0673,2023-029AN,2025-03-10T21:00:03.010176,13.19725251,.0002161,87.9202,37.0295,78.2055,281.9320,0,U,55832,999,9779,.50013E-4,.33E-6,0
ONEWEB-0674,2023-029AP,2025-03-10T20:26:21.328800,13.14502066,.0002193,87.9065,21.8575,94.5979,265.5401,0,U,55833,999,9854,.50837E-3,.201E-5,0
ONEWEB-0675,2023-029AQ,2025-03-10T21:22:47.474400,13.19724655,.000179,87.9207,37.0705,72.6768,287.4561,0,U,55834,999,9781,-.51884E-4,-.8E-7,0
ONEWEB-0720,2023-029AR,2025-03-10T21:11:25.390464,13.19725908,.0002377,87.9205,37.0695,80.4589,279.6812,0,U,55835,999,9773,-.35677E-4,-.1E-7,0
TIANHUI 6A,2023-030A,2025-03-10T22:02:59.088480,14.01353758,.000095,99.0069,79.2705,74.5798,285.5472,0,U,55836,999,10252,-.64768E-4,-.142E-5,0
TIANHUI 6B,2023-030D,2025-03-10T22:02:56.845536,14.01354041,.0001961,99.0070,79.2778,7.6090,352.5104,0,U,55839,999,10251,-.65674E-4,-.143E-5,0
LUCH-5X (OLYMP-K 2),2023-031A,2025-03-10T18:38:38.574240,1.00271141,.0000779,0.0676,306.3636,128.7363,75.2428,0,U,55841,999,730,0,.15E-6,0
HORUS 2,2023-032A,2025-03-10T20:21:25.369056,15.23068079,.0005521,97.3978,148.1662,233.0311,127.0421,0,U,55844,999,11094,.47667E-3,.11173E-3,0
SHIYAN 19 (SY-19),2023-034A,2025-03-10T21:48:20.988864,15.39519259,.0008123,97.4412,269.4936,227.3384,132.7178,0,U,55861,999,11091,.43972E-3,.17221E-3,0
ELECTRON KICK STAGE R/B,2023-035A,2025-03-10T12:37:17.874048,15.02586771,.0006502,44.1767,98.3911,8.6892,351.4080,0,U,55908,999,10842,.69384E-3,.9173E-4,0
CAPELLA-10-WHITNEY,2023-035B,2025-03-10T08:23:46.783392,15.44806564,.0020983,43.9879,28.6226,126.1710,234.1108,0,U,55909,999,10911,.32562E-2,.160223E-2,0
CAPELLA-9-WHITNEY,2023-035C,2025-03-10T07:17:28.095360,15.64677848,.0024989,43.9759,5.4759,165.2937,194.8676,0,U,55910,999,10938,.36002E-2,.380796E-2,0
GAOFEN-13 02,2023-036A,2025-03-10T18:52:03.408384,1.00270260,.0004401,1.4820,315.5343,9.3256,275.0390,0,U,55912,999,744,0,-.237E-5,0
STARLINK-5856,2023-037A,2025-03-10T13:58:27.535296,14.98325202,.0002893,70.0009,142.6577,263.0338,97.0492,0,U,55914,999,10963,-.77216E-4,-.1014E-4,0
STARLINK-5859,2023-037B,2025-03-10T13:34:24.652704,14.98329425,.0002873,70.0004,142.5962,271.2651,88.8179,0,U,55915,999,10963,-.25466E-4,-.397E-5,0
STARLINK-5796,2023-037C,2025-03-10T13:52:29.027136,14.98306200,.0003107,70.0001,142.6418,262.3935,97.6871,0,U,55916,999,10894,-.19678E-3,-.2439E-4,0
STARLINK-5855,2023-037D,2025-03-10T12:19:16.007808,15.37119478,.0015897,69.9873,109.2364,284.0593,75.8819,0,U,55917,999,10977,.17309E-2,.63717E-3,0
STARLINK-5867,2023-037E,2025-03-10T15:22:34.251744,14.98326289,.0003305,70.0008,142.4591,261.1655,98.9130,0,U,55918,999,10895,-.9053E-4,-.1173E-4,0
STARLINK-5871,2023-037F,2025-03-10T13:34:39.151488,14.98329753,.0002798,70.0006,142.5964,271.1461,88.9378,0,U,55919,999,10894,-.67624E-4,-.9E-5,0
STARLINK-5862,2023-037G,2025-03-10T13:40:06.685248,14.98317869,.0002543,70.0006,122.7334,263.8739,96.2130,0,U,55920,999,10943,-.20861E-3,-.258E-4,0
STARLINK-5861,2023-037H,2025-03-10T14:46:30.371520,14.98328637,.0002924,69.9996,142.3688,267.3311,92.7514,0,U,55921,999,10895,-.14423E-4,-.265E-5,0
STARLINK-5863,2023-037J,2025-03-10T14:52:30.551520,14.98337448,.0003017,69.9998,142.3839,270.5928,89.4885,0,U,55922,999,10895,-.72961E-4,-.964E-5,0
STARLINK-5854,2023-037K,2025-03-10T14:58:31.579968,14.98329080,.0003027,69.9999,142.3984,269.4276,90.6537,0,U,55923,999,10895,-.24216E-4,-.382E-5,0
STARLINK-5849,2023-037L,2025-03-10T13:34:05.343168,14.98331905,.0002907,69.9994,122.7161,267.8725,92.2102,0,U,55924,999,10977,-.16072E-4,-.285E-5,0
STARLINK-5922,2023-037M,2025-03-10T13:04:21.462240,14.98327681,.000301,69.9995,142.5217,265.3993,94.6823,0,U,55925,999,10894,-.49502E-4,-.684E-5,0
STARLINK-5921,2023-037N,2025-03-10T13:22:03.884160,14.98333330,.000297,69.9995,122.6888,269.7881,90.2938,0,U,55926,999,10943,-.69817E-4,-.926E-5,0
STARLINK-5919,2023-037P,2025-03-08T00:00:02.999808,14.98308963,.0003079,70.0009,148.8896,270.6095,91.6703,0,U,55927,999,10890,.29241E-2,.34952E-3,0
STARLINK-5930,2023-037Q,2025-03-10T14:22:27.529536,14.98330398,.0002879,70.0006,142.3108,265.2661,94.8169,0,U,55928,999,10895,-.12368E-3,-.1568E-4,0
STARLINK-5898,2023-037R,2025-03-10T18:34:05.178720,16.30925588,.0006487,69.9807,121.2044,252.3763,217.8029,0,U,55929,999,10982,.82871E-3,.4049082E-1,.43077E-5
STARLINK-5896,2023-037S,2025-03-10T12:39:59.537088,14.98328194,.0003064,69.9993,122.5897,269.3974,90.6834,0,U,55930,999,10943,-.23644E-5,-.121E-5,0
STARLINK-5897,2023-037T,2025-03-10T14:16:27.357312,14.98322099,.0003078,70.0000,142.2954,269.5844,90.4963,0,U,55931,999,10895,-.59063E-4,-.798E-5,0
STARLINK-5848,2023-037U,2025-03-10T11:39:34.757280,14.98329002,.0003106,69.9987,102.5562,268.8424,91.2379,0,U,55932,999,10992,.20024E-4,.146E-5,0
STARLINK-5852,2023-037V,2025-03-10T13:16:03.412992,14.98330450,.0003033,69.9999,122.6766,266.8055,93.2757,0,U,55933,999,10943,-.18238E-5,-.115E-5,0
STARLINK-5927,2023-037W,2025-03-10T12:40:13.703232,14.98334220,.0002908,69.9995,122.5871,267.7081,92.3745,0,U,55934,999,10943,.74531E-4,.796E-5,0
STARLINK-5920,2023-037X,2025-03-10T13:10:05.342016,14.98317540,.0002872,69.9993,122.6600,271.9733,88.1097,0,U,55935,999,10977,-.12619E-4,-.243E-5,0
STARLINK-5882,2023-037Y,2025-03-10T11:45:34.182144,14.98331610,.0003017,69.9990,102.5709,270.5611,89.5203,0,U,55936,999,10992,-.37675E-5,-.138E-5,0
STARLINK-5913,2023-037Z,2025-03-10T13:04:02.177760,14.98328110,.0003038,69.9993,122.6444,266.3720,93.7092,0,U,55937,999,10943,.94907E-6,-.82E-6,0
STARLINK-5909,2023-037AA,2025-03-10T12:58:01.159680,14.98332977,.0003707,69.9992,122.6297,266.9644,93.1091,0,U,55938,999,10943,.12121E-6,-.92E-6,0
STARLINK-5918,2023-037AB,2025-03-10T12:46:00.271776,14.98328832,.0003019,69.9994,122.6004,264.6889,95.3925,0,U,55939,999,10943,-.29917E-4,-.45E-5,0
STARLINK-5864,2023-037AC,2025-03-10T12:52:00.859584,14.98328701,.0003106,69.9995,122.6156,267.1258,92.9545,0,U,55940,999,10943,-.36038E-4,-.523E-5,0
STARLINK-5914,2023-037AD,2025-03-10T13:28:04.617120,14.98332687,.0002993,69.9994,122.7039,268.8393,91.2423,0,U,55941,999,10977,.38555E-5,-.47E-6,0
STARLINK-5917,2023-037AE,2025-03-10T13:52:05.078784,14.98326775,.0002873,69.9997,122.3580,269.2183,90.8647,0,U,55942,999,10944,-.61137E-4,-.822E-5,0
STARLINK-5932,2023-037AF,2025-03-10T12:27:58.053024,14.98330206,.0002874,69.9997,122.5470,267.2598,92.8232,0,U,55943,999,10943,-.16139E-4,-.286E-5,0
STARLINK-5926,2023-037AG,2025-03-10T13:58:05.848896,14.98332532,.0003133,69.9992,122.3719,274.9624,85.1178,0,U,55944,999,10944,.18544E-3,.212E-4,0
STARLINK-5925,2023-037AH,2025-03-08T00:00:02.999808,14.98302957,.0003358,70.0012,128.9344,267.4488,163.5463,0,U,55945,999,582,.55671E-2,.66925E-3,0
STARLINK-5857,2023-037AJ,2025-03-10T22:10:47.590752,14.98329983,.0003445,70.0002,121.5603,278.3128,81.7640,0,U,55946,999,10949,.33398E-3,.3894E-4,0
STARLINK-5851,2023-037AK,2025-03-10T13:46:18.651072,14.98327225,.0003016,69.9997,122.3437,269.0321,91.0493,0,U,55947,999,10944,-.60284E-4,-.812E-5,0
STARLINK-5900,2023-037AL,2025-03-10T11:15:33.079968,14.98333595,.0003033,69.9989,102.9022,270.1451,89.9361,0,U,55948,999,10991,.25631E-4,.213E-5,0
STARLINK-5899,2023-037AM,2025-03-10T11:27:34.602048,14.98333135,.0002947,69.9990,102.9314,267.4031,92.6791,0,U,55949,999,10991,.36383E-5,-.5E-6,0
STARLINK-5911,2023-037AN,2025-03-10T12:45:40.572576,14.98334059,.0003021,69.9988,102.7182,271.4892,88.5921,0,U,55950,999,10992,-.73576E-6,-.102E-5,0
STARLINK-5908,2023-037AP,2025-03-10T13:46:04.396800,14.98329256,.0002922,69.9997,122.3432,269.6486,90.4338,0,U,55951,999,10978,-.36037E-4,-.523E-5,0
STARLINK-5893,2023-037AQ,2025-03-10T12:51:58.071456,14.98310898,.000297,69.9994,102.7367,264.0982,95.9839,0,U,55952,999,10992,-.20751E-3,-.2567E-4,0
STARLINK-5889,2023-037AR,2025-03-10T11:24:02.903040,14.99142079,.0003044,69.9990,102.9248,268.5720,91.5091,0,U,55953,999,10991,.14674E-4,.85E-6,0
STARLINK-5892,2023-037AS,2025-03-10T12:09:36.797760,14.98325939,.0002943,69.9991,102.6311,270.0558,90.0264,0,U,55954,999,10992,.11727E-3,.1306E-4,0
STARLINK-5878,2023-037AT,2025-03-10T12:33:39.442752,14.98330526,.0003045,69.9993,102.6888,272.8445,87.2365,0,U,55955,999,10992,-.17868E-4,-.306E-5,0
STARLINK-5883,2023-037AU,2025-03-10T11:57:35.521920,14.98332884,.000287,69.9990,102.6014,268.7682,91.3148,0,U,55956,999,10992,.39999E-5,-.45E-6,0
STARLINK-5884,2023-037AV,2025-03-09T00:00:02.000160,14.98291932,.0003428,70.0010,106.5554,268.5599,134.4289,0,U,55957,999,577,.59013E-2,.7097E-3,0
STARLINK-5928,2023-037AW,2025-03-10T12:27:38.740896,14.98330494,.0002947,69.9996,102.6736,269.1638,90.9184,0,U,55958,999,10992,.43842E-5,-.41E-6,0
STARLINK-5929,2023-037AX,2025-03-10T18:46:10.441056,14.98329568,.0003112,69.9989,101.9875,269.7165,90.3637,0,U,55959,999,10996,.32224E-4,.291E-5,0
STARLINK-5938,2023-037AY,2025-03-10T12:39:54.484416,14.98331451,.0003203,69.9986,102.6859,272.0641,88.0151,0,U,55960,999,10992,.23445E-3,.2706E-4,0
